ONEWEB-0534             
1 55797U 23029B   26193.15362706  .00000059  00000+0  11339-3 0  9993
2 55797  87.9177 269.4932 0002012 101.5764 258.5596 13.20773251164448
ONEWEB-0556             
1 55798U 23029C   26193.23617560  .00001237  00000+0  30110-2 0  9990
2 55798  87.9183 269.4820 0000670 115.3649 244.7554 13.20761064164456
ONEWEB-0562             
1 55799U 23029D   26192.76812252 -.00000037  00000+0 -12355-3 0  9994
2 55799  87.9179 269.5501 0001444  78.5042 281.6254 13.20771857164397
ONEWEB-0563             
1 55800U 23029E   26193.14184358  .00000016  00000+0  73337-5 0  9993
2 55800  87.9179 269.5052 0002068 105.8995 254.2367 13.20769920164439
ONEWEB-0564             
1 55801U 23029F   26193.58966786 -.00000031  00000+0 -10898-3 0  9995
2 55801  87.9179 269.3900 0001797  90.4491 269.6848 13.20772157164506
ONEWEB-0638             
1 55802U 23029G   26192.75076393 -.00000180  00000+0 -51985-3 0  9997
2 55802  87.8963 284.8551 0001461  96.2492 263.8804 13.14504367162622
ONEWEB-0639             
1 55803U 23029H   26193.27889392 -.00000014  00000+0 -68122-4 0  9995
2 55803  87.9184 299.9798 0002405 124.7519 235.3840 13.19724750162219
ONEWEB-0640             
1 55804U 23029J   26192.76027614 -.00000054  00000+0 -17929-3 0  9992
2 55804  87.8962 284.8443 0001481 112.8070 247.3216 13.14502570162642
ONEWEB-0641             
1 55805U 23029K   26193.27415954  .00000016  00000+0  70763-5 0  9991
2 55805  87.9191 299.9711 0002122 103.7723 256.3646 13.19726547162228
ONEWEB-0642             
1 55806U 23029L   26193.26943539 -.00000436  00000+0 -11211-2 0  9994
2 55806  87.9177 299.9822 0002857 117.5553 242.5871 13.19730172162210
ONEWEB-0643             
1 55807U 23029M   26192.80626958 -.00000121  00000+0 -36105-3 0  9998
2 55807  87.8961 284.8228 0002643 108.3277 251.8141 13.14501575162624
ONEWEB-0644             
1 55808U 23029N   26193.26469704  .00000081  00000+0  16995-3 0  9992
2 55808  87.9183 299.9841 0002286 106.6304 253.5080 13.19726098162215
ONEWEB-0645             
1 55809U 23029P   26193.28680800 -.00000068  00000+0 -20225-3 0  9995
2 55809  87.9191 299.9754 0001914 118.1882 241.9444 13.19726048162214
ONEWEB-0646             
1 55810U 23029Q   26193.22835943 -.00000064  00000+0 -19145-3 0  9996
2 55810  87.9186 299.9884 0002130 106.0335 254.1033 13.19726880162195
ONEWEB-0648             
1 55811U 23029R   26193.23125744  .00000114  00000+0  27353-3 0  9993
2 55811  87.8973 284.7135 0002209 124.5830 235.5508 13.14503278162685
ONEWEB-0649             
1 55812U 23029S   26193.25362553  .00000065  00000+0  13010-3 0  9997
2 55812  87.9187 299.9816 0002016 108.2379 251.8973 13.19726635162238
ONEWEB-0650             
1 55813U 23029T   26192.86980654  .00000095  00000+0  20376-3 0  9998
2 55813  87.9183 300.0602 0002455 112.9804 247.1587 13.19726221162155
ONEWEB-0652             
1 55814U 23029U   26192.75551896 -.00000158  00000+0 -46153-3 0  9992
2 55814  87.8966 284.8155 0002086  96.0605 264.0763 13.14502504162590
ONEWEB-0653             
1 55815U 23029V   26193.19636234 -.00000099  00000+0 -30130-3 0  9994
2 55815  87.8974 284.7250 0001951 100.3069 259.8280 13.14502180162684
ONEWEB-0654             
1 55816U 23029W   26192.81101477 -.00000056  00000+0 -18528-3 0  9999
2 55816  87.8974 284.7977 0001791  92.3617 267.7718 13.14502172162654
ONEWEB-0656             
1 55817U 23029X   26193.58291999  .00000088  00000+0  18341-3 0  9990
2 55817  87.9190 269.3701 0001972  85.5203 274.6156 13.20770719164506
ONEWEB-0657             
1 55818U 23029Y   26193.24418316  .00000059  00000+0  11413-3 0  9999
2 55818  87.9182 299.9844 0002301  81.1451 278.9943 13.19727284162213
ONEWEB-0658             
1 55819U 23029Z   26192.86034248  .00000015  00000+0  45724-5 0  9991
2 55819  87.9192 300.0385 0002306 107.9630 252.1754 13.19726051162170
ONEWEB-0660             
1 55820U 23029AA  26192.78881775  .00000164  00000+0  40711-3 0  9993
2 55820  87.8978 284.7987 0001877 107.5326 252.6009 13.14501472162631
ONEWEB-0661             
1 55821U 23029AB  26193.20429944 -.00000181  00000+0 -52193-3 0  9996
2 55821  87.8959 284.7561 0001820 104.4344 255.6988 13.14502739162673
ONEWEB-0662             
1 55822U 23029AC  26193.23921282  .00011555  00000+0  31132-1 0  9995
2 55822  87.8941 284.7555 0002305 102.6107 257.5281 13.14419407162726
ONEWEB-0663             
1 55823U 23029AD  26192.62997024  .00000073  00000+0  14670-3 0  9998
2 55823  87.9187 269.6323 0002071 109.0050 251.1308 13.20871241164371
ONEWEB-0664             
1 55824U 23029AE  26192.73614620 -.00000035  00000+0 -11908-3 0  9990
2 55824  87.9178 269.5883 0001633 100.1199 260.0118 13.20771535164385
ONEWEB-0665             
1 55825U 23029AF  26193.20112759 -.00000160  00000+0 -46662-3 0  9994
2 55825  87.8963 284.7371 0001990 110.2340 249.9004 13.14502465162693
ONEWEB-0666             
1 55826U 23029AG  26192.72939531 -.00000028  00000+0 -10041-3 0  9991
2 55826  87.9177 269.5797 0002648  85.7725 274.3711 13.20772487164395
