OBJECT_NAME,OBJECT_ID,EPOCH,MEAN_MOTION,ECCENTRICITY,INCLINATION,RA_OF_ASC_NODE,ARG_OF_PERICENTER,MEAN_ANOMALY,EPHEMERIS_TYPE,CLASSIFICATION_TYPE,NORAD_CAT_ID,ELEMENT_SET_NO,REV_AT_EPOCH,BSTAR,MEAN_MOTION_DOT,MEAN_MOTION_DDOT
ONEWEB-0534,2023-029B,2026-07-12T03:41:13.377984,13.20773251,.00020124,87.9177,269.4932,101.5764,258.5596,0,U,55797,999,16444,.11339035E-3,.59E-6,0
ONEWEB-0556,2023-029C,2026-07-12T05:40:05.571840,13.20761064,.000067,87.9183,269.4820,115.3649,244.7554,0,U,55798,999,16445,.3011E-2,.1237E-4,0
ONEWEB-0562,2023-029D,2026-07-11T18:26:05.785728,13.20771857,.00014444,87.9179,269.5501,78.5042,281.6254,0,U,55799,999,16439,-.12355097E-3,-.37E-6,0
ONEWEB-0563,2023-029E,2026-07-12T03:24:15.285312,13.20769920,.00020688,87.9179,269.5052,105.8995,254.2367,0,U,55800,999,16443,.7333668E-5,.16E-6,0
ONEWEB-0564,2023-029F,2026-07-12T14:09:07.303104,13.20772157,.00017979,87.9179,269.3900,90.4491,269.6848,0,U,55801,999,16450,-.10898099E-3,-.31E-6,0
ONEWEB-0638,2023-029G,2026-07-11T18:01:06.003552,13.14504367,.00014615,87.8963,284.8551,96.2492,263.8804,0,U,55802,999,16262,-.51985056E-3,-.18E-5,0
ONEWEB-0639,2023-029H,2026-07-12T06:41:36.434688,13.19724750,.0002405,87.9184,299.9798,124.7519,235.3840,0,U,55803,999,16221,-.68122E-4,-.14E-6,0
ONEWEB-0640,2023-029J,2026-07-11T18:14:47.858496,13.14502570,.00014813,87.8962,284.8443,112.8070,247.3216,0,U,55804,999,16264,-.1792877E-3,-.54E-6,0
ONEWEB-0641,2023-029K,2026-07-12T06:34:47.384256,13.19726547,.0002122,87.9191,299.9711,103.7723,256.3646,0,U,55805,999,16222,.70763E-5,.16E-6,0
ONEWEB-0642,2023-029L,2026-07-12T06:27:59.217696,13.19730172,.0002857,87.9177,299.9822,117.5553,242.5871,0,U,55806,999,16221,-.11211E-2,-.436E-5,0
ONEWEB-0643,2023-029M,2026-07-11T19:21:01.691712,13.14501575,.00026437,87.8961,284.8228,108.3277,251.8141,0,U,55807,999,16262,-.36104965E-3,-.121E-5,0
ONEWEB-0644,2023-029N,2026-07-12T06:21:09.824256,13.19726098,.0002286,87.9183,299.9841,106.6304,253.5080,0,U,55808,999,16221,.16995E-3,.81E-6,0
ONEWEB-0645,2023-029P,2026-07-12T06:53:00.211200,13.19726048,.0001914,87.9191,299.9754,118.1882,241.9444,0,U,55809,999,16221,-.20225E-3,-.68E-6,0
ONEWEB-0646,2023-029Q,2026-07-12T05:28:50.254752,13.19726880,.000213,87.9186,299.9884,106.0335,254.1033,0,U,55810,999,16219,-.19145E-3,-.64E-6,0
ONEWEB-0648,2023-029R,2026-07-12T05:33:00.642816,13.14503278,.00022096,87.8973,284.7135,124.5830,235.5508,0,U,55811,999,16268,.27353346E-3,.114E-5,0
ONEWEB-0649,2023-029S,2026-07-12T06:05:13.245792,13.19726635,.0002016,87.9187,299.9816,108.2379,251.8973,0,U,55812,999,16223,.1301E-3,.65E-6,0
ONEWEB-0650,2023-029T,2026-07-11T20:52:31.285056,13.19726221,.0002455,87.9183,300.0602,112.9804,247.1587,0,U,55813,999,16215,.20376E-3,.95E-6,0
ONEWEB-0652,2023-029U,2026-07-11T18:07:56.838144,13.14502504,.00020862,87.8966,284.8155,96.0605,264.0763,0,U,55814,999,16259,-.4615293E-3,-.158E-5,0
ONEWEB-0653,2023-029V,2026-07-12T04:42:45.706176,13.14502180,.0001951,87.8974,284.7250,100.3069,259.8280,0,U,55815,999,16268,-.3013E-3,-.99E-6,0
ONEWEB-0654,2023-029W,2026-07-11T19:27:51.676128,13.14502172,.00017913,87.8974,284.7977,92.3617,267.7718,0,U,55816,999,16265,-.1852781E-3,-.56E-6,0
ONEWEB-0656,2023-029X,2026-07-12T13:59:24.287136,13.20770719,.00019723,87.9190,269.3701,85.5203,274.6156,0,U,55817,999,16450,.18340994E-3,.88E-6,0
ONEWEB-0657,2023-029Y,2026-07-12T05:51:37.425024,13.19727284,.0002301,87.9182,299.9844,81.1451,278.9943,0,U,55818,999,16221,.11413E-3,.59E-6,0
ONEWEB-0658,2023-029Z,2026-07-11T20:38:53.590272,13.19726051,.0002306,87.9192,300.0385,107.9630,252.1754,0,U,55819,999,16217,.4572442E-5,.15E-6,0
ONEWEB-0660,2023-029AA,2026-07-11T18:55:53.853600,13.14501472,.0001877,87.8978,284.7987,107.5326,252.6009,0,U,55820,999,16263,.40711415E-3,.164E-5,0
ONEWEB-0661,2023-029AB,2026-07-12T04:54:11.471616,13.14502739,.00018203,87.8959,284.7561,104.4344,255.6988,0,U,55821,999,16267,-.52193333E-3,-.181E-5,0
ONEWEB-0662,2023-029AC,2026-07-12T05:44:27.987648,13.14419407,.0002305,87.8941,284.7555,102.6107,257.5281,0,U,55822,999,16272,.31132E-1,.11555E-3,0
ONEWEB-0663,2023-029AD,2026-07-11T15:07:09.428736,13.20871241,.0002071,87.9187,269.6323,109.0050,251.1308,0,U,55823,999,16437,.14669715E-3,.73E-6,0
ONEWEB-0664,2023-029AE,2026-07-11T17:40:03.031680,13.20771535,.00016339,87.9178,269.5883,100.1199,260.0118,0,U,55824,999,16438,-.11908275E-3,-.35E-6,0
ONEWEB-0665,2023-029AF,2026-07-12T04:49:37.423776,13.14502465,.000199,87.8963,284.7371,110.2340,249.9004,0,U,55825,999,16269,-.46662E-3,-.16E-5,0
ONEWEB-0666,2023-029AG,2026-07-11T17:30:19.754784,13.20772487,.00026487,87.9177,269.5797,85.7725,274.3711,0,U,55826,999,16439,-.10040727E-3,-.28E-6,0
